OBJECT_NAME,OBJECT_ID,EPOCH,MEAN_MOTION,ECCENTRICITY,INCLINATION,RA_OF_ASC_NODE,ARG_OF_PERICENTER,MEAN_ANOMALY,EPHEMERIS_TYPE,CLASSIFICATION_TYPE,NORAD_CAT_ID,ELEMENT_SET_NO,REV_AT_EPOCH,BSTAR,MEAN_MOTION_DOT,MEAN_MOTION_DDOT
SAUDISAT 1C (SO-50),2002-058C,2026-06-27T11:20:13.262208,14.83067272,.0075023,64.5520,97.1634,260.5582,98.7038,0,U,27607,999,26598,.12441E-3,.908E-5,0
SAUDISAT 2,2004-025F,2026-06-27T11:16:22.836000,14.56689363,.0023432,98.5509,178.7174,264.9912,94.8610,0,U,28371,999,16724,.65355E-4,.243E-5,0
SAUDISAT 3,2007-012B,2026-06-27T09:23:02.596992,14.71431078,.0014312,98.1459,128.7984,189.8320,170.2609,0,U,31118,999,2924,.48287E-4,.248E-5,0
PISAT,2016-059B,2026-06-27T11:56:27.636576,14.69000082,.0029246,97.8180,178.5074,169.6128,190.5689,0,U,41784,999,52125,.15988E-3,.896E-5,0
FLYING LAPTOP,2017-042G,2026-06-27T12:24:50.753376,15.01208876,.001997,97.4725,333.6550,88.7419,271.6093,0,U,42831,999,48800,.17589E-3,.2209E-4,0
SALSAT,2020-068K,2026-06-27T11:30:55.594368,15.29940196,.0007835,97.8847,182.1720,263.9678,96.0668,0,U,46495,999,31693,.26096E-3,.7487E-4,0
